{
  "norad_id": 58705,
  "name": "STARLINK-11072 [DTC]",
  "history": [
    {
      "epoch": "2026-03-28T13:48:52.358400Z",
      "apogee_km": 360.89236962089944,
      "perigee_km": 359.06903497065923,
      "latitude_deg": -7.562908734611482e-06,
      "longitude_deg": 147.70215540369225,
      "height_km": 360.34250602091834,
      "semi_major_axis_km": 6738.117702295779,
      "eccentricity": 0.0001353,
      "inclination_deg": 53.1605,
      "raan_deg": 180.9144,
      "arg_perigee_deg": 52.7428,
      "mean_anomaly_deg": 307.3713,
      "mean_motion_rev_day": 15.6962126
    }
  ]
}