{"fetched_at":"2026-03-29T16:36:15Z","count":15609,"tles":[{"name":"STARLINK-11072 [DTC]","line1":"1 58705U 24002A   26087.57560600  .00021348  00000+0  18127-3 0  9994","line2":"2 58705  53.1605 180.9144 0001353  52.7428 307.3713 15.69621260129402","category":"Starlink"}]}